[{"OBJECT_NAME":"CENTISPACE-1 OBJECT H","OBJECT_ID":"2026-060H","EPOCH":"2026-03-25T14:49:38.254368","MEAN_MOTION":14.75425125,"ECCENTRICITY":0.00144709,"INCLINATION":54.9848,"RA_OF_ASC_NODE":16.6351,"ARG_OF_PERICENTER":304.4277,"MEAN_ANOMALY":55.5354,"EPHEMERIS_TYPE":0,"CLASSIFICATION_TYPE":"U","NORAD_CAT_ID":68357,"ELEMENT_SET_NO":999,"REV_AT_EPOCH":44,"BSTAR":3.3491501e-5,"MEAN_MOTION_DOT":1.9e-7,"MEAN_MOTION_DDOT":0},{"OBJECT_NAME":"CENTISPACE-1 OBJECT J","OBJECT_ID":"2026-060J","EPOCH":"2026-03-25T14:49:37.060320","MEAN_MOTION":14.75435012,"ECCENTRICITY":0.0013871,"INCLINATION":54.9877,"RA_OF_ASC_NODE":16.6351,"ARG_OF_PERICENTER":306.1411,"MEAN_ANOMALY":53.8304,"EPHEMERIS_TYPE":0,"CLASSIFICATION_TYPE":"U","NORAD_CAT_ID":68358,"ELEMENT_SET_NO":999,"REV_AT_EPOCH":44,"BSTAR":3.3263e-5,"MEAN_MOTION_DOT":1.7e-7,"MEAN_MOTION_DDOT":0},{"OBJECT_NAME":"SUPERVIEW NEO-2 OBJECT A","OBJECT_ID":"2026-062A","EPOCH":"2026-03-26T01:28:55.409952","MEAN_MOTION":15.19655825,"ECCENTRICITY":0.00089992,"INCLINATION":97.4363,"RA_OF_ASC_NODE":93.5445,"ARG_OF_PERICENTER":273.7616,"MEAN_ANOMALY":86.259,"EPHEMERIS_TYPE":0,"CLASSIFICATION_TYPE":"U","NORAD_CAT_ID":68377,"ELEMENT_SET_NO":999,"REV_AT_EPOCH":2,"BSTAR":7.172046e-5,"MEAN_MOTION_DOT":1.462e-5,"MEAN_MOTION_DDOT":0},{"OBJECT_NAME":"SUPERVIEW NEO-2 OBJECT B","OBJECT_ID":"2026-062B","EPOCH":"2026-03-26T10:57:49.731840","MEAN_MOTION":15.19540243,"ECCENTRICITY":0.0008885,"INCLINATION":97.434,"RA_OF_ASC_NODE":93.9366,"ARG_OF_PERICENTER":265.8774,"MEAN_ANOMALY":94.1445,"EPHEMERIS_TYPE":0,"CLASSIFICATION_TYPE":"U","NORAD_CAT_ID":68378,"ELEMENT_SET_NO":999,"REV_AT_EPOCH":8,"BSTAR":0.00014053,"MEAN_MOTION_DOT":2.92e-5,"MEAN_MOTION_DDOT":0}]
